{
  "norad_id": 56459,
  "name": "STARLINK-6048",
  "history": [
    {
      "epoch": "2026-04-14T20:03:31.322880Z",
      "apogee_km": 574.1150942005179,
      "perigee_km": 569.9880722198086,
      "latitude_deg": 1.9674982480727147e-05,
      "longitude_deg": -90.70009884542934,
      "height_km": 574.4714326346149,
      "semi_major_axis_km": 6950.188583210163,
      "eccentricity": 0.0002969,
      "inclination_deg": 69.9996,
      "raan_deg": 53.1869,
      "arg_perigee_deg": 270.2095,
      "mean_anomaly_deg": 89.8724,
      "mean_motion_rev_day": 14.98331393
    },
    {
      "epoch": "2026-04-15T20:05:32.343360Z",
      "apogee_km": 574.1135562089266,
      "perigee_km": 570.0032106591643,
      "latitude_deg": 7.852955237639868e-05,
      "longitude_deg": -94.71645318676767,
      "height_km": 574.4903835249238,
      "semi_major_axis_km": 6950.195383434046,
      "eccentricity": 0.0002957,
      "inclination_deg": 69.9999,
      "raan_deg": 50.6618,
      "arg_perigee_deg": 269.8717,
      "mean_anomaly_deg": 90.2104,
      "mean_motion_rev_day": 14.98329194
    },
    {
      "epoch": "2026-04-16T20:00:01.999008Z",
      "apogee_km": 574.101253731511,
      "perigee_km": 569.9992532145116,
      "latitude_deg": -26.46691640904537,
      "longitude_deg": -107.21575770463397,
      "height_km": 580.5786825552524,
      "semi_major_axis_km": 6950.187253473011,
      "eccentricity": 0.0002951,
      "inclination_deg": 70.0023,
      "raan_deg": 48.1491,
      "arg_perigee_deg": 265.274,
      "mean_anomaly_deg": 66.6392,
      "mean_motion_rev_day": 14.98331823
    },
    {
      "epoch": "2026-04-17T23:21:50.267808Z",
      "apogee_km": 574.0848244974577,
      "perigee_km": 570.0259121543559,
      "latitude_deg": 5.433902418751755e-05,
      "longitude_deg": -151.28309546735784,
      "height_km": 574.499385609535,
      "semi_major_axis_km": 6950.1923683259065,
      "eccentricity": 0.000292,
      "inclination_deg": 70.0002,
      "raan_deg": 45.2755,
      "arg_perigee_deg": 269.5305,
      "mean_anomaly_deg": 90.552,
      "mean_motion_rev_day": 14.98330169
    },
    {
      "epoch": "2026-04-18T04:10:14.464128Z",
      "apogee_km": 574.0482628934496,
      "perigee_km": 570.0595483327179,
      "latitude_deg": -1.892394678448784e-05,
      "longitude_deg": 135.91385501715703,
      "height_km": 574.4831416660132,
      "semi_major_axis_km": 6950.1909056130835,
      "eccentricity": 0.00028695,
      "inclination_deg": 70.0005,
      "raan_deg": 44.7707,
      "arg_perigee_deg": 269.9462,
      "mean_anomaly_deg": 90.1368,
      "mean_motion_rev_day": 14.98330642
    },
    {
      "epoch": "2026-04-19T12:12:55.493568Z",
      "apogee_km": 573.9987224218185,
      "perigee_km": 570.1009186491265,
      "latitude_deg": -6.603468345055148e-05,
      "longitude_deg": 10.560351003267977,
      "height_km": 574.4663839912959,
      "semi_major_axis_km": 6950.186820535472,
      "eccentricity": 0.00028041,
      "inclination_deg": 70.0007,
      "raan_deg": 41.4042,
      "arg_perigee_deg": 270.3161,
      "mean_anomaly_deg": 89.7676,
      "mean_motion_rev_day": 14.98331963
    },
    {
      "epoch": "2026-04-20T12:14:56.895936Z",
      "apogee_km": 573.9473483184465,
      "perigee_km": 570.1747808090013,
      "latitude_deg": -4.741243396932474e-06,
      "longitude_deg": 6.542898317390946,
      "height_km": 574.4609782218696,
      "semi_major_axis_km": 6950.198064563724,
      "eccentricity": 0.0002714,
      "inclination_deg": 70.0014,
      "raan_deg": 38.8796,
      "arg_perigee_deg": 270.8307,
      "mean_anomaly_deg": 89.2541,
      "mean_motion_rev_day": 14.98328327
    },
    {
      "epoch": "2026-04-21T12:16:57.514656Z",
      "apogee_km": 573.9826643990609,
      "perigee_km": 570.1214173755061,
      "latitude_deg": -6.762904257952504e-05,
      "longitude_deg": 2.5282741453824826,
      "height_km": 574.4679312139908,
      "semi_major_axis_km": 6950.189040887283,
      "eccentricity": 0.00027778,
      "inclination_deg": 70.0011,
      "raan_deg": 36.3546,
      "arg_perigee_deg": 270.3391,
      "mean_anomaly_deg": 89.7449,
      "mean_motion_rev_day": 14.98331245
    },
    {
      "epoch": "2026-04-22T12:18:58.091040Z",
      "apogee_km": 573.5746908967158,
      "perigee_km": 570.5332873198813,
      "latitude_deg": 1.4576012814768014e-05,
      "longitude_deg": -1.4851207285078059,
      "height_km": 574.3100891099158,
      "semi_major_axis_km": 6950.190989108298,
      "eccentricity": 0.0002188,
      "inclination_deg": 70.002,
      "raan_deg": 33.8306,
      "arg_perigee_deg": 276.4416,
      "mean_anomaly_deg": 83.6494,
      "mean_motion_rev_day": 14.98330615
    },
    {
      "epoch": "2026-04-23T04:20:19.590720Z",
      "apogee_km": 574.2601281231819,
      "perigee_km": 569.9170711504803,
      "latitude_deg": 2.858519492767184e-07,
      "longitude_deg": 115.83306420159977,
      "height_km": 574.5287907300568,
      "semi_major_axis_km": 6950.22559963683,
      "eccentricity": 0.00031244,
      "inclination_deg": 70.001,
      "raan_deg": 32.1464,
      "arg_perigee_deg": 269.6688,
      "mean_anomaly_deg": 90.4113,
      "mean_motion_rev_day": 14.98319423
    },
    {
      "epoch": "2026-04-24T20:23:41.316000Z",
      "apogee_km": 574.2651263957423,
      "perigee_km": 569.9254013701748,
      "latitude_deg": 1.3846680256964442e-05,
      "longitude_deg": -130.86169800694506,
      "height_km": 574.6444782908355,
      "semi_major_axis_km": 6950.232263882958,
      "eccentricity": 0.0003122,
      "inclination_deg": 70.0012,
      "raan_deg": 27.9372,
      "arg_perigee_deg": 266.7886,
      "mean_anomaly_deg": 93.2916,
      "mean_motion_rev_day": 14.98317268
    }
  ]
}